{
"type": "FeatureCollection",
"name": "adaptive_boxes",
"crs": { "type": "name", "properties": { "name": "urn:ogc:def:crs:OGC:1.3:CRS84" } },
"features": [
{ "type": "Feature", "properties": { "point_count": 200, "lon_min": -180.0, "lon_max": 41.8359375, "lat_min": -90, "lat_max": -60, "lon_width": 221.8359375 }, "geometry": { "type": "Polygon", "coordinates": [ [ [ 41.8359375, -90.0 ], [ 41.8359375, -60.0 ], [ -180.0, -60.0 ], [ -180.0, -90.0 ], [ 41.8359375, -90.0 ] ] ] } },
{ "type": "Feature", "properties": { "point_count": 200, "lon_min": 41.8359375, "lon_max": 142.16173410415649, "lat_min": -90, "lat_max": -60, "lon_width": 100.32579660415649 }, "geometry": { "type": "Polygon", "coordinates": [ [ [ 142.161734104156494, -90.0 ], [ 142.161734104156494, -60.0 ], [ 41.8359375, -60.0 ], [ 41.8359375, -90.0 ], [ 142.161734104156494, -90.0 ] ] ] } },
{ "type": "Feature", "properties": { "point_count": 42, "lon_min": 142.16173410415649, "lon_max": 180.0, "lat_min": -90, "lat_max": -60, "lon_width": 37.838265895843506 }, "geometry": { "type": "Polygon", "coordinates": [ [ [ 180.0, -90.0 ], [ 180.0, -60.0 ], [ 142.161734104156494, -60.0 ], [ 142.161734104156494, -90.0 ], [ 180.0, -90.0 ] ] ] } },
{ "type": "Feature", "properties": { "point_count": 200, "lon_min": -180.0, "lon_max": 149.43603515625, "lat_min": -60, "lat_max": -30, "lon_width": 329.43603515625 }, "geometry": { "type": "Polygon", "coordinates": [ [ [ 149.43603515625, -60.0 ], [ 149.43603515625, -30.0 ], [ -180.0, -30.0 ], [ -180.0, -60.0 ], [ 149.43603515625, -60.0 ] ] ] } },
{ "type": "Feature", "properties": { "point_count": 16, "lon_min": 149.43603515625, "lon_max": 180.0, "lat_min": -60, "lat_max": -30, "lon_width": 30.56396484375 }, "geometry": { "type": "Polygon", "coordinates": [ [ [ 180.0, -60.0 ], [ 180.0, -30.0 ], [ 149.43603515625, -30.0 ], [ 149.43603515625, -60.0 ], [ 180.0, -60.0 ] ] ] } },
{ "type": "Feature", "properties": { "point_count": 200, "lon_min": -180.0, "lon_max": -60.4302978515625, "lat_min": -30, "lat_max": 0, "lon_width": 119.5697021484375 }, "geometry": { "type": "Polygon", "coordinates": [ [ [ -60.4302978515625, -30.0 ], [ -60.4302978515625, 0.0 ], [ -180.0, 0.0 ], [ -180.0, -30.0 ], [ -60.4302978515625, -30.0 ] ] ] } },
{ "type": "Feature", "properties": { "point_count": 200, "lon_min": -60.4302978515625, "lon_max": -44.251440223306417, "lat_min": -30, "lat_max": 0, "lon_width": 16.178857628256083 }, "geometry": { "type": "Polygon", "coordinates": [ [ [ -44.251440223306417, -30.0 ], [ -44.251440223306417, 0.0 ], [ -60.4302978515625, 0.0 ], [ -60.4302978515625, -30.0 ], [ -44.251440223306417, -30.0 ] ] ] } },
{ "type": "Feature", "properties": { "point_count": 200, "lon_min": -44.251440223306417, "lon_max": 23.609804932159477, "lat_min": -30, "lat_max": 0, "lon_width": 67.861245155465895 }, "geometry": { "type": "Polygon", "coordinates": [ [ [ 23.609804932159477, -30.0 ], [ 23.609804932159477, 0.0 ], [ -44.251440223306417, 0.0 ], [ -44.251440223306417, -30.0 ], [ 23.609804932159477, -30.0 ] ] ] } },
{ "type": "Feature", "properties": { "point_count": 200, "lon_min": 23.609804932159477, "lon_max": 47.301239512138736, "lat_min": -30, "lat_max": 0, "lon_width": 23.691434579979259 }, "geometry": { "type": "Polygon", "coordinates": [ [ [ 47.301239512138736, -30.0 ], [ 47.301239512138736, 0.0 ], [ 23.609804932159477, 0.0 ], [ 23.609804932159477, -30.0 ], [ 47.301239512138736, -30.0 ] ] ] } },
{ "type": "Feature", "properties": { "point_count": 200, "lon_min": 47.301239512138736, "lon_max": 139.08238903902128, "lat_min": -30, "lat_max": 0, "lon_width": 91.78114952688253 }, "geometry": { "type": "Polygon", "coordinates": [ [ [ 139.08238903902128, -30.0 ], [ 139.08238903902128, 0.0 ], [ 47.301239512138736, 0.0 ], [ 47.301239512138736, -30.0 ], [ 139.08238903902128, -30.0 ] ] ] } },
{ "type": "Feature", "properties": { "point_count": 96, "lon_min": 139.08238903902128, "lon_max": 180.0, "lat_min": -30, "lat_max": 0, "lon_width": 40.91761096097872 }, "geometry": { "type": "Polygon", "coordinates": [ [ [ 180.0, -30.0 ], [ 180.0, 0.0 ], [ 139.08238903902128, 0.0 ], [ 139.08238903902128, -30.0 ], [ 180.0, -30.0 ] ] ] } },
{ "type": "Feature", "properties": { "point_count": 200, "lon_min": -180.0, "lon_max": -61.138916015625, "lat_min": 0, "lat_max": 30, "lon_width": 118.861083984375 }, "geometry": { "type": "Polygon", "coordinates": [ [ [ -61.138916015625, 0.0 ], [ -61.138916015625, 30.0 ], [ -180.0, 30.0 ], [ -180.0, 0.0 ], [ -61.138916015625, 0.0 ] ] ] } },
{ "type": "Feature", "properties": { "point_count": 200, "lon_min": -61.138916015625, "lon_max": 0.91932613402605057, "lat_min": 0, "lat_max": 30, "lon_width": 62.058242149651051 }, "geometry": { "type": "Polygon", "coordinates": [ [ [ 0.919326134026051, 0.0 ], [ 0.919326134026051, 30.0 ], [ -61.138916015625, 30.0 ], [ -61.138916015625, 0.0 ], [ 0.919326134026051, 0.0 ] ] ] } },
{ "type": "Feature", "properties": { "point_count": 200, "lon_min": 0.91932613402605057, "lon_max": 17.576976706031928, "lat_min": 0, "lat_max": 30, "lon_width": 16.657650572005878 }, "geometry": { "type": "Polygon", "coordinates": [ [ [ 17.576976706031928, 0.0 ], [ 17.576976706031928, 30.0 ], [ 0.919326134026051, 30.0 ], [ 0.919326134026051, 0.0 ], [ 17.576976706031928, 0.0 ] ] ] } },
{ "type": "Feature", "properties": { "point_count": 200, "lon_min": 17.576976706031928, "lon_max": 32.714913508393337, "lat_min": 0, "lat_max": 30, "lon_width": 15.137936802361406 }, "geometry": { "type": "Polygon", "coordinates": [ [ [ 32.714913508393337, 0.0 ], [ 32.714913508393337, 30.0 ], [ 17.576976706031928, 30.0 ], [ 17.576976706031928, 0.0 ], [ 32.714913508393337, 0.0 ] ] ] } },
{ "type": "Feature", "properties": { "point_count": 200, "lon_min": 32.714913508393337, "lon_max": 50.730008316082525, "lat_min": 0, "lat_max": 30, "lon_width": 18.015094807689188 }, "geometry": { "type": "Polygon", "coordinates": [ [ [ 50.730008316082525, 0.0 ], [ 50.730008316082525, 30.0 ], [ 32.714913508393337, 30.0 ], [ 32.714913508393337, 0.0 ], [ 50.730008316082525, 0.0 ] ] ] } },
{ "type": "Feature", "properties": { "point_count": 200, "lon_min": 50.730008316082525, "lon_max": 94.20398623224375, "lat_min": 0, "lat_max": 30, "lon_width": 43.473977916161218 }, "geometry": { "type": "Polygon", "coordinates": [ [ [ 94.20398623224375, 0.0 ], [ 94.20398623224375, 30.0 ], [ 50.730008316082525, 30.0 ], [ 50.730008316082525, 0.0 ], [ 94.20398623224375, 0.0 ] ] ] } },
{ "type": "Feature", "properties": { "point_count": 200, "lon_min": 94.20398623224375, "lon_max": 125.61295172168479, "lat_min": 0, "lat_max": 30, "lon_width": 31.408965489441037 }, "geometry": { "type": "Polygon", "coordinates": [ [ [ 125.612951721684794, 0.0 ], [ 125.612951721684794, 30.0 ], [ 94.20398623224375, 30.0 ], [ 94.20398623224375, 0.0 ], [ 125.612951721684794, 0.0 ] ] ] } },
{ "type": "Feature", "properties": { "point_count": 2, "lon_min": 125.61295172168479, "lon_max": 180.0, "lat_min": 0, "lat_max": 30, "lon_width": 54.387048278315206 }, "geometry": { "type": "Polygon", "coordinates": [ [ [ 180.0, 0.0 ], [ 180.0, 30.0 ], [ 125.612951721684794, 30.0 ], [ 125.612951721684794, 0.0 ], [ 180.0, 0.0 ] ] ] } },
{ "type": "Feature", "properties": { "point_count": 200, "lon_min": -180.0, "lon_max": -105.040283203125, "lat_min": 30, "lat_max": 60, "lon_width": 74.959716796875 }, "geometry": { "type": "Polygon", "coordinates": [ [ [ -105.040283203125, 30.0 ], [ -105.040283203125, 60.0 ], [ -180.0, 60.0 ], [ -180.0, 30.0 ], [ -105.040283203125, 30.0 ] ] ] } },
{ "type": "Feature", "properties": { "point_count": 200, "lon_min": -105.040283203125, "lon_max": -83.249941729009151, "lat_min": 30, "lat_max": 60, "lon_width": 21.790341474115849 }, "geometry": { "type": "Polygon", "coordinates": [ [ [ -83.249941729009151, 30.0 ], [ -83.249941729009151, 60.0 ], [ -105.040283203125, 60.0 ], [ -105.040283203125, 30.0 ], [ -83.249941729009151, 30.0 ] ] ] } },
{ "type": "Feature", "properties": { "point_count": 200, "lon_min": -83.249941729009151, "lon_max": 3.8278817085131323, "lat_min": 30, "lat_max": 60, "lon_width": 87.077823437522284 }, "geometry": { "type": "Polygon", "coordinates": [ [ [ 3.827881708513132, 30.0 ], [ 3.827881708513132, 60.0 ], [ -83.249941729009151, 60.0 ], [ -83.249941729009151, 30.0 ], [ 3.827881708513132, 30.0 ] ] ] } },
{ "type": "Feature", "properties": { "point_count": 200, "lon_min": 3.8278817085131323, "lon_max": 35.016067078658253, "lat_min": 30, "lat_max": 60, "lon_width": 31.188185370145121 }, "geometry": { "type": "Polygon", "coordinates": [ [ [ 35.016067078658253, 30.0 ], [ 35.016067078658253, 60.0 ], [ 3.827881708513132, 60.0 ], [ 3.827881708513132, 30.0 ], [ 35.016067078658253, 30.0 ] ] ] } },
{ "type": "Feature", "properties": { "point_count": 200, "lon_min": 35.016067078658253, "lon_max": 57.802543352611806, "lat_min": 30, "lat_max": 60, "lon_width": 22.786476273953554 }, "geometry": { "type": "Polygon", "coordinates": [ [ [ 57.802543352611806, 30.0 ], [ 57.802543352611806, 60.0 ], [ 35.016067078658253, 60.0 ], [ 35.016067078658253, 30.0 ], [ 57.802543352611806, 30.0 ] ] ] } },
{ "type": "Feature", "properties": { "point_count": 200, "lon_min": 57.802543352611806, "lon_max": 78.409939148310883, "lat_min": 30, "lat_max": 60, "lon_width": 20.60739579569907 }, "geometry": { "type": "Polygon", "coordinates": [ [ [ 78.409939148310883, 30.0 ], [ 78.409939148310883, 60.0 ], [ 57.802543352611806, 60.0 ], [ 57.802543352611806, 30.0 ], [ 78.409939148310883, 30.0 ] ] ] } },
{ "type": "Feature", "properties": { "point_count": 200, "lon_min": 78.409939148310883, "lon_max": 98.543174474570321, "lat_min": 30, "lat_max": 60, "lon_width": 20.133235326259431 }, "geometry": { "type": "Polygon", "coordinates": [ [ [ 98.543174474570321, 30.0 ], [ 98.543174474570321, 60.0 ], [ 78.409939148310883, 60.0 ], [ 78.409939148310883, 30.0 ], [ 98.543174474570321, 30.0 ] ] ] } },
{ "type": "Feature", "properties": { "point_count": 200, "lon_min": 98.543174474570321, "lon_max": 119.09630659872354, "lat_min": 30, "lat_max": 60, "lon_width": 20.553132124153215 }, "geometry": { "type": "Polygon", "coordinates": [ [ [ 119.096306598723544, 30.0 ], [ 119.096306598723544, 60.0 ], [ 98.543174474570321, 60.0 ], [ 98.543174474570321, 30.0 ], [ 119.096306598723544, 30.0 ] ] ] } },
{ "type": "Feature", "properties": { "point_count": 148, "lon_min": 119.09630659872354, "lon_max": 180.0, "lat_min": 30, "lat_max": 60, "lon_width": 60.903693401276456 }, "geometry": { "type": "Polygon", "coordinates": [ [ [ 180.0, 30.0 ], [ 180.0, 60.0 ], [ 119.096306598723544, 60.0 ], [ 119.096306598723544, 30.0 ], [ 180.0, 30.0 ] ] ] } },
{ "type": "Feature", "properties": { "point_count": 200, "lon_min": -180.0, "lon_max": -72.158203125, "lat_min": 60, "lat_max": 90, "lon_width": 107.841796875 }, "geometry": { "type": "Polygon", "coordinates": [ [ [ -72.158203125, 60.0 ], [ -72.158203125, 90.0 ], [ -180.0, 90.0 ], [ -180.0, 60.0 ], [ -72.158203125, 60.0 ] ] ] } },
{ "type": "Feature", "properties": { "point_count": 200, "lon_min": -72.158203125, "lon_max": 67.379904091358185, "lat_min": 60, "lat_max": 90, "lon_width": 139.53810721635818 }, "geometry": { "type": "Polygon", "coordinates": [ [ [ 67.379904091358185, 60.0 ], [ 67.379904091358185, 90.0 ], [ -72.158203125, 90.0 ], [ -72.158203125, 60.0 ], [ 67.379904091358185, 60.0 ] ] ] } },
{ "type": "Feature", "properties": { "point_count": 200, "lon_min": 67.379904091358185, "lon_max": 143.99511338076991, "lat_min": 60, "lat_max": 90, "lon_width": 76.615209289411723 }, "geometry": { "type": "Polygon", "coordinates": [ [ [ 143.995113380769908, 60.0 ], [ 143.995113380769908, 90.0 ], [ 67.379904091358185, 90.0 ], [ 67.379904091358185, 60.0 ], [ 143.995113380769908, 60.0 ] ] ] } },
{ "type": "Feature", "properties": { "point_count": 66, "lon_min": 143.99511338076991, "lon_max": 180.0, "lat_min": 60, "lat_max": 90, "lon_width": 36.004886619230092 }, "geometry": { "type": "Polygon", "coordinates": [ [ [ 180.0, 60.0 ], [ 180.0, 90.0 ], [ 143.995113380769908, 90.0 ], [ 143.995113380769908, 60.0 ], [ 180.0, 60.0 ] ] ] } }
]
}
