{
"type": "FeatureCollection",
"name": "PreWinds",
"crs": { "type": "name", "properties": { "name": "urn:ogc:def:crs:OGC:1.3:CRS84" } },
"features": [
{ "type": "Feature", "properties": { "Region": "PolarWesterlies" }, "geometry": { "type": "MultiPolygon", "coordinates": [ [ [ [ -180.0, 30.0 ], [ 180.0, 30.0 ], [ 180.0, 90.0 ], [ -180.0, 90.0 ], [ -180.0, 30.0 ] ] ], [ [ [ -180.0, -30.0 ], [ 180.0, -30.0 ], [ 180.0, -90.0 ], [ -180.0, -90.0 ], [ -180.0, -30.0 ] ] ] ] } },
{ "type": "Feature", "properties": { "Region": "TradeWinds" }, "geometry": { "type": "Polygon", "coordinates": [ [ [ -180.0, 30.0 ], [ -180.0, -30.0 ], [ 180.0, -30.0 ], [ 180.0, 30.0 ], [ -180.0, 30.0 ] ] ] } }
]
}
